ATLAS CENTAUR 2         
1 00694U 63047A   26054.68891074  .00001290  00000+0  14443-3 0  9999
2 00694  30.3557 273.8878 0548056 316.8983  38.9928 14.12023156129649
THOR AGENA D R/B        
1 00733U 64002A   26054.77676932  .00000227  00000+0  98203-4 0  9995
2 00733  99.1230  67.3562 0032022 299.8984  59.9019 14.34010874236305
SL-3 R/B                
1 00877U 64053B   26054.59439691  .00000362  00000+0  94280-4 0  9990
2 00877  65.0783  12.5588 0079141 296.6961  62.6052 14.61352323264736
SL-8 R/B                
1 02802U 67045B   26054.59613968  .00000470  00000+0  13756-3 0  9993
2 02802  74.0124  14.4066 0063620  24.0890 336.3219 14.45606562 86980
SL-8 R/B                
1 03230U 68040B   26054.80005398  .00004125  00000+0  30633-3 0  9995
2 03230  74.0332 342.0708 0024574 170.3840 189.7825 15.03146636 87929
OAO 2                   
1 03597U 68110A   26054.84755631  .00000246  00000+0  71468-4 0  9997
2 03597  34.9947 342.5067 0004847  87.4959 272.6287 14.47298207 17099
ISIS 1                  
1 03669U 69009A   26054.55847780  .00000185  00000+0  11547-3 0  9993
2 03669  88.4555 156.8484 1707812 117.6720 260.7932 11.30409014346934
SERT 2                  
1 04327U 70009A   26054.58322693  .00000041  00000+0  11215-3 0  9994
2 04327  99.2740 358.4502 0004488 191.7463 341.5735 13.58728501777976
SL-3 R/B                
1 05118U 71028B   26054.67714274  .00039448  00000+0  48628-3 0  9996
2 05118  81.2335  69.3223 0015497 343.0374  17.0358 15.59865084986484
ASTEX 1                 
1 05560U 71089A   26054.68261811  .00000545  00000+0  13863-3 0  9998
2 05560  92.7139 147.2291 0017439 127.3866 232.8931 14.50752203860272
SL-8 R/B                
1 05730U 71119B   26054.80912492  .00015844  00000+0  82170-3 0  9998
2 05730  73.8867 201.6543 0551468 171.1645 189.9733 14.37400483653492
OAO 3 (COPERNICUS)      
1 06153U 72065A   26054.59992939  .00000390  00000+0  84435-4 0  9996
2 06153  35.0068  17.5879 0006111  41.5144 124.9121 14.59984527844138
