CCSDS_OMM_VERS = 2.0
CREATION_DATE  = 
ORIGINATOR     = 

OBJECT_NAME    = ATLAS CENTAUR 2
OBJECT_ID      = 1963-047A
CENTER_NAME    = EARTH
REF_FRAME      = TEME
TIME_SYSTEM    = UTC
MEAN_ELEMENT_THEORY = SGP/SGP4

EPOCH          = 2026-02-23T16:32:01.887936
MEAN_MOTION    = 14.12023156
ECCENTRICITY   = .0548056
INCLINATION    = 30.3557
RA_OF_ASC_NODE = 273.8878
ARG_OF_PERICENTER = 316.8983
MEAN_ANOMALY   = 38.9928

EPHEMERIS_TYPE = 0
CLASSIFICATION_TYPE = U
NORAD_CAT_ID   = 694
ELEMENT_SET_NO = 999
REV_AT_EPOCH   = 12964
BSTAR          = .14443E-3
MEAN_MOTION_DOT = .129E-4
MEAN_MOTION_DDOT = 0

CCSDS_OMM_VERS = 2.0
CREATION_DATE  = 
ORIGINATOR     = 

OBJECT_NAME    = THOR AGENA D R/B
OBJECT_ID      = 1964-002A
CENTER_NAME    = EARTH
REF_FRAME      = TEME
TIME_SYSTEM    = UTC
MEAN_ELEMENT_THEORY = SGP/SGP4

EPOCH          = 2026-02-23T18:38:32.869248
MEAN_MOTION    = 14.34010874
ECCENTRICITY   = .0032022
INCLINATION    = 99.1230
RA_OF_ASC_NODE = 67.3562
ARG_OF_PERICENTER = 299.8984
MEAN_ANOMALY   = 59.9019

EPHEMERIS_TYPE = 0
CLASSIFICATION_TYPE = U
NORAD_CAT_ID   = 733
ELEMENT_SET_NO = 999
REV_AT_EPOCH   = 23630
BSTAR          = .98203E-4
MEAN_MOTION_DOT = .227E-5
MEAN_MOTION_DDOT = 0

CCSDS_OMM_VERS = 2.0
CREATION_DATE  = 
ORIGINATOR     = 

OBJECT_NAME    = SL-3 R/B
OBJECT_ID      = 1964-053B
CENTER_NAME    = EARTH
REF_FRAME      = TEME
TIME_SYSTEM    = UTC
MEAN_ELEMENT_THEORY = SGP/SGP4

EPOCH          = 2026-02-23T14:15:55.893024
MEAN_MOTION    = 14.61352323
ECCENTRICITY   = .0079141
INCLINATION    = 65.0783
RA_OF_ASC_NODE = 12.5588
ARG_OF_PERICENTER = 296.6961
MEAN_ANOMALY   = 62.6052

EPHEMERIS_TYPE = 0
CLASSIFICATION_TYPE = U
NORAD_CAT_ID   = 877
ELEMENT_SET_NO = 999
REV_AT_EPOCH   = 26473
BSTAR          = .9428E-4
MEAN_MOTION_DOT = .362E-5
MEAN_MOTION_DDOT = 0

CCSDS_OMM_VERS = 2.0
CREATION_DATE  = 
ORIGINATOR     = 

OBJECT_NAME    = SL-8 R/B
OBJECT_ID      = 1967-045B
CENTER_NAME    = EARTH
REF_FRAME      = TEME
TIME_SYSTEM    = UTC
MEAN_ELEMENT_THEORY = SGP/SGP4

EPOCH          = 2026-02-23T14:18:26.468352
MEAN_MOTION    = 14.45606562
ECCENTRICITY   = .006362
INCLINATION    = 74.0124
RA_OF_ASC_NODE = 14.4066
ARG_OF_PERICENTER = 24.0890
MEAN_ANOMALY   = 336.3219

EPHEMERIS_TYPE = 0
CLASSIFICATION_TYPE = U
NORAD_CAT_ID   = 2802
ELEMENT_SET_NO = 999
REV_AT_EPOCH   = 8698
BSTAR          = .13756E-3
MEAN_MOTION_DOT = .47E-5
MEAN_MOTION_DDOT = 0

CCSDS_OMM_VERS = 2.0
CREATION_DATE  = 
ORIGINATOR     = 

OBJECT_NAME    = SL-8 R/B
OBJECT_ID      = 1968-040B
CENTER_NAME    = EARTH
REF_FRAME      = TEME
TIME_SYSTEM    = UTC
MEAN_ELEMENT_THEORY = SGP/SGP4

EPOCH          = 2026-02-23T19:12:04.663872
MEAN_MOTION    = 15.03146636
ECCENTRICITY   = .0024574
INCLINATION    = 74.0332
RA_OF_ASC_NODE = 342.0708
ARG_OF_PERICENTER = 170.3840
MEAN_ANOMALY   = 189.7825

EPHEMERIS_TYPE = 0
CLASSIFICATION_TYPE = U
NORAD_CAT_ID   = 3230
ELEMENT_SET_NO = 999
REV_AT_EPOCH   = 8792
BSTAR          = .30633E-3
MEAN_MOTION_DOT = .4125E-4
MEAN_MOTION_DDOT = 0

CCSDS_OMM_VERS = 2.0
CREATION_DATE  = 
ORIGINATOR     = 

OBJECT_NAME    = OAO 2
OBJECT_ID      = 1968-110A
CENTER_NAME    = EARTH
REF_FRAME      = TEME
TIME_SYSTEM    = UTC
MEAN_ELEMENT_THEORY = SGP/SGP4

EPOCH          = 2026-02-23T20:20:28.865184
MEAN_MOTION    = 14.47298207
ECCENTRICITY   = .0004847
INCLINATION    = 34.9947
RA_OF_ASC_NODE = 342.5067
ARG_OF_PERICENTER = 87.4959
MEAN_ANOMALY   = 272.6287

EPHEMERIS_TYPE = 0
CLASSIFICATION_TYPE = U
NORAD_CAT_ID   = 3597
ELEMENT_SET_NO = 999
REV_AT_EPOCH   = 1709
BSTAR          = .71468E-4
MEAN_MOTION_DOT = .246E-5
MEAN_MOTION_DDOT = 0

CCSDS_OMM_VERS = 2.0
CREATION_DATE  = 
ORIGINATOR     = 

OBJECT_NAME    = ISIS 1
OBJECT_ID      = 1969-009A
CENTER_NAME    = EARTH
REF_FRAME      = TEME
TIME_SYSTEM    = UTC
MEAN_ELEMENT_THEORY = SGP/SGP4

EPOCH          = 2026-02-23T13:24:12.481920
MEAN_MOTION    = 11.30409014
ECCENTRICITY   = .1707812
INCLINATION    = 88.4555
RA_OF_ASC_NODE = 156.8484
ARG_OF_PERICENTER = 117.6720
MEAN_ANOMALY   = 260.7932

EPHEMERIS_TYPE = 0
CLASSIFICATION_TYPE = U
NORAD_CAT_ID   = 3669
ELEMENT_SET_NO = 999
REV_AT_EPOCH   = 34693
BSTAR          = .11547E-3
MEAN_MOTION_DOT = .185E-5
MEAN_MOTION_DDOT = 0

CCSDS_OMM_VERS = 2.0
CREATION_DATE  = 
ORIGINATOR     = 

OBJECT_NAME    = SERT 2
OBJECT_ID      = 1970-009A
CENTER_NAME    = EARTH
REF_FRAME      = TEME
TIME_SYSTEM    = UTC
MEAN_ELEMENT_THEORY = SGP/SGP4

EPOCH          = 2026-02-23T13:59:50.806752
MEAN_MOTION    = 13.58728501
ECCENTRICITY   = .0004488
INCLINATION    = 99.2740
RA_OF_ASC_NODE = 358.4502
ARG_OF_PERICENTER = 191.7463
MEAN_ANOMALY   = 341.5735

EPHEMERIS_TYPE = 0
CLASSIFICATION_TYPE = U
NORAD_CAT_ID   = 4327
ELEMENT_SET_NO = 999
REV_AT_EPOCH   = 77797
BSTAR          = .11215E-3
MEAN_MOTION_DOT = .41E-6
MEAN_MOTION_DDOT = 0

CCSDS_OMM_VERS = 2.0
CREATION_DATE  = 
ORIGINATOR     = 

OBJECT_NAME    = SL-3 R/B
OBJECT_ID      = 1971-028B
CENTER_NAME    = EARTH
REF_FRAME      = TEME
TIME_SYSTEM    = UTC
MEAN_ELEMENT_THEORY = SGP/SGP4

EPOCH          = 2026-02-23T16:15:05.132736
MEAN_MOTION    = 15.59865084
ECCENTRICITY   = .0015497
INCLINATION    = 81.2335
RA_OF_ASC_NODE = 69.3223
ARG_OF_PERICENTER = 343.0374
MEAN_ANOMALY   = 17.0358

EPHEMERIS_TYPE = 0
CLASSIFICATION_TYPE = U
NORAD_CAT_ID   = 5118
ELEMENT_SET_NO = 999
REV_AT_EPOCH   = 98648
BSTAR          = .48628E-3
MEAN_MOTION_DOT = .39448E-3
MEAN_MOTION_DDOT = 0

CCSDS_OMM_VERS = 2.0
CREATION_DATE  = 
ORIGINATOR     = 

OBJECT_NAME    = ASTEX 1
OBJECT_ID      = 1971-089A
CENTER_NAME    = EARTH
REF_FRAME      = TEME
TIME_SYSTEM    = UTC
MEAN_ELEMENT_THEORY = SGP/SGP4

EPOCH          = 2026-02-23T16:22:58.204704
MEAN_MOTION    = 14.50752203
ECCENTRICITY   = .0017439
INCLINATION    = 92.7139
RA_OF_ASC_NODE = 147.2291
ARG_OF_PERICENTER = 127.3866
MEAN_ANOMALY   = 232.8931

EPHEMERIS_TYPE = 0
CLASSIFICATION_TYPE = U
NORAD_CAT_ID   = 5560
ELEMENT_SET_NO = 999
REV_AT_EPOCH   = 86027
BSTAR          = .13863E-3
MEAN_MOTION_DOT = .545E-5
MEAN_MOTION_DDOT = 0

CCSDS_OMM_VERS = 2.0
CREATION_DATE  = 
ORIGINATOR     = 

OBJECT_NAME    = SL-8 R/B
OBJECT_ID      = 1971-119B
CENTER_NAME    = EARTH
REF_FRAME      = TEME
TIME_SYSTEM    = UTC
MEAN_ELEMENT_THEORY = SGP/SGP4

EPOCH          = 2026-02-23T19:25:08.393088
MEAN_MOTION    = 14.37400483
ECCENTRICITY   = .0551468
INCLINATION    = 73.8867
RA_OF_ASC_NODE = 201.6543
ARG_OF_PERICENTER = 171.1645
MEAN_ANOMALY   = 189.9733

EPHEMERIS_TYPE = 0
CLASSIFICATION_TYPE = U
NORAD_CAT_ID   = 5730
ELEMENT_SET_NO = 999
REV_AT_EPOCH   = 65349
BSTAR          = .8217E-3
MEAN_MOTION_DOT = .15844E-3
MEAN_MOTION_DDOT = 0

CCSDS_OMM_VERS = 2.0
CREATION_DATE  = 
ORIGINATOR     = 

OBJECT_NAME    = OAO 3 (COPERNICUS)
OBJECT_ID      = 1972-065A
CENTER_NAME    = EARTH
REF_FRAME      = TEME
TIME_SYSTEM    = UTC
MEAN_ELEMENT_THEORY = SGP/SGP4

EPOCH          = 2026-02-23T14:23:53.899296
MEAN_MOTION    = 14.59984527
ECCENTRICITY   = .0006111
INCLINATION    = 35.0068
RA_OF_ASC_NODE = 17.5879
ARG_OF_PERICENTER = 41.5144
MEAN_ANOMALY   = 124.9121

EPHEMERIS_TYPE = 0
CLASSIFICATION_TYPE = U
NORAD_CAT_ID   = 6153
ELEMENT_SET_NO = 999
REV_AT_EPOCH   = 84413
BSTAR          = .84435E-4
MEAN_MOTION_DOT = .39E-5
MEAN_MOTION_DDOT = 0

